$$SOE
2460154.500000000, A.D. 2023-Jul-29 00:00:00.0000, 1.639151704875498E+09, 4.957451722482127E+09, -2.553859649244993E+08,
2460161.500000000, A.D. 2023-Aug-05 00:00:00.0000, 1.635875998308222E+09, 4.957857123729048E+09, -2.556019814543397E+08,
2460168.500000000, A.D. 2023-Aug-12 00:00:00.0000, 1.632599648682509E+09, 4.958260809378739E+09, -2.558179084922011E+08,
2460175.500000000, A.D. 2023-Aug-19 00:00:00.0000, 1.629322654916341E+09, 4.958662776223280E+09, -2.560337458130651E+08,
2460182.500000000, A.D. 2023-Aug-26 00:00:00.0000, 1.626045016234227E+09, 4.959063020656499E+09, -2.562494932159984E+08,
2460189.500000000, A.D. 2023-Sep-02 00:00:00.0000, 1.622766732144943E+09, 4.959461538692662E+09, -2.564651505227380E+08,
2460196.500000000, A.D. 2023-Sep-09 00:00:00.0000, 1.619487802432910E+09, 4.959858325872622E+09, -2.566807175876305E+08,
2460203.500000000, A.D. 2023-Sep-16 00:00:00.0000, 1.616208227331611E+09, 4.960253376999429E+09, -2.568961943390687E+08,
2460210.500000000, A.D. 2023-Sep-23 00:00:00.0000, 1.612928008295478E+09, 4.960646685990196E+09, -2.571115808671029E+08,
2460217.500000000, A.D. 2023-Sep-30 00:00:00.0000, 1.609647149030664E+09, 4.961038247034907E+09, -2.573268774286838E+08,
2460224.500000000, A.D. 2023-Oct-07 00:00:00.0000, 1.606365654430981E+09, 4.961428056519394E+09, -2.575420841988790E+08,
2460231.500000000, A.D. 2023-Oct-14 00:00:00.0000, 1.603083528458880E+09, 4.961816112399257E+09, -2.577572011340258E+08,
2460238.500000000, A.D. 2023-Oct-21 00:00:00.0000, 1.599800774200095E+09, 4.962202412627495E+09, -2.579722281118028E+08,
2460245.500000000, A.D. 2023-Oct-28 00:00:00.0000, 1.596517394667587E+09, 4.962586954895945E+09, -2.581871650326414E+08,
2460252.500000000, A.D. 2023-Nov-04 00:00:00.0000, 1.593233393104754E+09, 4.962969736920139E+09, -2.584020118305111E+08,
2460259.500000000, A.D. 2023-Nov-11 00:00:00.0000, 1.589948772965480E+09, 4.963350756667714E+09, -2.586167684581466E+08,
2460266.500000000, A.D. 2023-Nov-18 00:00:00.0000, 1.586663537790510E+09, 4.963730012466049E+09, -2.588314348718367E+08,
2460273.500000000, A.D. 2023-Nov-25 00:00:00.0000, 1.583377691052996E+09, 4.964107503011722E+09, -2.590460110203929E+08,
2460280.500000000, A.D. 2023-Dec-02 00:00:00.0000, 1.580091236001379E+09, 4.964483227270540E+09, -2.592604968416152E+08,
2460287.500000000, A.D. 2023-Dec-09 00:00:00.0000, 1.576804175577443E+09, 4.964857184209291E+09, -2.594748922780991E+08,
2460294.500000000, A.D. 2023-Dec-16 00:00:00.0000, 1.573516512697089E+09, 4.965229372371720E+09, -2.596891973376913E+08,
2460301.500000000, A.D. 2023-Dec-23 00:00:00.0000, 1.570228251242280E+09, 4.965599789986236E+09, -2.599034121744165E+08,
2460308.500000000, A.D. 2023-Dec-30 00:00:00.0000, 1.566939396423933E+09, 4.965968436654550E+09, -2.601175369813194E+08,
2460315.500000000, A.D. 2024-Jan-06 00:00:00.0000, 1.563649952743310E+09, 4.966335314260568E+09, -2.603315717257323E+08,
2460322.500000000, A.D. 2024-Jan-13 00:00:00.0000, 1.560359922724654E+09, 4.966700425292620E+09, -2.605455161658852E+08,
2460329.500000000, A.D. 2024-Jan-20 00:00:00.0000, 1.557069307642621E+09, 4.967063771663586E+09, -2.607593700092382E+08,
2460336.500000000, A.D. 2024-Jan-27 00:00:00.0000, 1.553778108215776E+09, 4.967425354681157E+09, -2.609731329734294E+08,
2460343.500000000, A.D. 2024-Feb-03 00:00:00.0000, 1.550486324837784E+09, 4.967785175219567E+09, -2.611868047882810E+08,
2460350.500000000, A.D. 2024-Feb-10 00:00:00.0000, 1.547193957623645E+09, 4.968143233801724E+09, -2.614003851883266E+08,
2460357.500000000, A.D. 2024-Feb-17 00:00:00.0000, 1.543901006409693E+09, 4.968499530599630E+09, -2.616138739081030E+08,
2460364.500000000, A.D. 2024-Feb-24 00:00:00.0000, 1.540607470743275E+09, 4.968854065367890E+09, -2.618272706824389E+08,
2460371.500000000, A.D. 2024-Mar-02 00:00:00.0000, 1.537313349891478E+09, 4.969206837277806E+09, -2.620405752572010E+08,
2460378.500000000, A.D. 2024-Mar-09 00:00:00.0000, 1.534018643007695E+09, 4.969557844589176E+09, -2.622537874284494E+08,
2460385.500000000, A.D. 2024-Mar-16 00:00:00.0000, 1.530723349851350E+09, 4.969907084357080E+09, -2.624669071301799E+08,
2460392.500000000, A.D. 2024-Mar-23 00:00:00.0000, 1.527427471957191E+09, 4.970254553282681E+09, -2.626799344705815E+08,
2460399.500000000, A.D. 2024-Mar-30 00:00:00.0000, 1.524131012013020E+09, 4.970600249681273E+09, -2.628928695134296E+08,
2460406.500000000, A.D. 2024-Apr-06 00:00:00.0000, 1.520833971701874E+09, 4.970944173199942E+09, -2.631057121033275E+08,
2460413.500000000, A.D. 2024-Apr-13 00:00:00.0000, 1.517536351559815E+09, 4.971286323121262E+09, -2.633184619921575E+08,
2460420.500000000, A.D. 2024-Apr-20 00:00:00.0000, 1.514238151897155E+09, 4.971626697929708E+09, -2.635311189606502E+08,
2460427.500000000, A.D. 2024-Apr-27 00:00:00.0000, 1.510939373266113E+09, 4.971965295579370E+09, -2.637436828417714E+08,
2460434.500000000, A.D. 2024-May-04 00:00:00.0000, 1.507640016562817E+09, 4.972302113759706E+09, -2.639561535114045E+08,
2460441.500000000, A.D. 2024-May-11 00:00:00.0000, 1.504340083001984E+09, 4.972637150057661E+09, -2.641685308764122E+08,
2460448.500000000, A.D. 2024-May-18 00:00:00.0000, 1.501039574046280E+09, 4.972970402038104E+09, -2.643808148656878E+08,
2460455.500000000, A.D. 2024-May-25 00:00:00.0000, 1.497738491315058E+09, 4.973301867235733E+09, -2.645930054268749E+08,
2460462.500000000, A.D. 2024-Jun-01 00:00:00.0000, 1.494436836532339E+09, 4.973631543001353E+09, -2.648051025387001E+08,
2460469.500000000, A.D. 2024-Jun-08 00:00:00.0000, 1.491134611760386E+09, 4.973959426179914E+09, -2.650171062631736E+08,
2460476.500000000, A.D. 2024-Jun-15 00:00:00.0000, 1.487831820318398E+09, 4.974285513165627E+09, -2.652290168294659E+08,
2460483.500000000, A.D. 2024-Jun-22 00:00:00.0000, 1.484528467381105E+09, 4.974609801509576E+09, -2.654408345609732E+08,
2460490.500000000, A.D. 2024-Jun-29 00:00:00.0000, 1.481224558135628E+09, 4.974932291259186E+09, -2.656525595994995E+08,
2460497.500000000, A.D. 2024-Jul-06 00:00:00.0000, 1.477920096141618E+09, 4.975252983558599E+09, -2.658641918708961E+08,
2460504.500000000, A.D. 2024-Jul-13 00:00:00.0000, 1.474615083843918E+09, 4.975571879334134E+09, -2.660757312399924E+08,
2460511.500000000, A.D. 2024-Jul-20 00:00:00.0000, 1.471309523252089E+09, 4.975888979213594E+09, -2.662871775787251E+08,
2460518.500000000, A.D. 2024-Jul-27 00:00:00.0000, 1.468003416130823E+09, 4.976204283719988E+09, -2.664985307656965E+08,
2460525.500000000, A.D. 2024-Aug-03 00:00:00.0000, 1.464696763974153E+09, 4.976517793364826E+09, -2.667097906729054E+08,
2460532.500000000, A.D. 2024-Aug-10 00:00:00.0000, 1.461389567929250E+09, 4.976829508636726E+09, -2.669209571553648E+08,
2460539.500000000, A.D. 2024-Aug-17 00:00:00.0000, 1.458081828717123E+09, 4.977139429907340E+09, -2.671320300463557E+08,
2460546.500000000, A.D. 2024-Aug-24 00:00:00.0000, 1.454773546578076E+09, 4.977447557232692E+09, -2.673430091629422E+08,
2460553.500000000, A.D. 2024-Aug-31 00:00:00.0000, 1.451464721357523E+09, 4.977753889988860E+09, -2.675538943376229E+08,
2460560.500000000, A.D. 2024-Sep-07 00:00:00.0000, 1.448155353097674E+09, 4.978058426468664E+09, -2.677646854995856E+08,
2460567.500000000, A.D. 2024-Sep-14 00:00:00.0000, 1.444845443220337E+09, 4.978361164435595E+09, -2.679753827322345E+08,
2460574.500000000, A.D. 2024-Sep-21 00:00:00.0000, 1.441534994271997E+09, 4.978662103047751E+09, -2.681859860874178E+08,
2460581.500000000, A.D. 2024-Sep-28 00:00:00.0000, 1.438224007743687E+09, 4.978961242924358E+09, -2.683964953755829E+08,
2460588.500000000, A.D. 2024-Oct-05 00:00:00.0000, 1.434912483635344E+09, 4.979258584356619E+09, -2.686069102684512E+08,
2460595.500000000, A.D. 2024-Oct-12 00:00:00.0000, 1.431600421404044E+09, 4.979554126643188E+09, -2.688172304377069E+08,
2460602.500000000, A.D. 2024-Oct-19 00:00:00.0000, 1.428287820545168E+09, 4.979847868279569E+09, -2.690274555912766E+08,
2460609.500000000, A.D. 2024-Oct-26 00:00:00.0000, 1.424974680774188E+09, 4.980139807200198E+09, -2.692375854697402E+08,
2460616.500000000, A.D. 2024-Nov-02 00:00:00.0000, 1.421661002066486E+09, 4.980429940925144E+09, -2.694476198386014E+08,
2460623.500000000, A.D. 2024-Nov-09 00:00:00.0000, 1.418346784651958E+09, 4.980718266632318E+09, -2.696575584835534E+08,
2460630.500000000, A.D. 2024-Nov-16 00:00:00.0000, 1.415032028990444E+09, 4.981004781155815E+09, -2.698674012110474E+08,
2460637.500000000, A.D. 2024-Nov-23 00:00:00.0000, 1.411716735775078E+09, 4.981289480860737E+09, -2.700771478624787E+08,
2460644.500000000, A.D. 2024-Nov-30 00:00:00.0000, 1.408400906171977E+09, 4.981572361352124E+09, -2.702867983645039E+08,
2460651.500000000, A.D. 2024-Dec-07 00:00:00.0000, 1.405084542715828E+09, 4.981853417438826E+09, -2.704963528194795E+08,
2460658.500000000, A.D. 2024-Dec-14 00:00:00.0000, 1.401767650172822E+09, 4.982132644576471E+09, -2.707058114727173E+08,
2460665.500000000, A.D. 2024-Dec-21 00:00:00.0000, 1.398450234052465E+09, 4.982410040548918E+09, -2.709151744451458E+08,
2460672.500000000, A.D. 2024-Dec-28 00:00:00.0000, 1.395132298740778E+09, 4.982685604420890E+09, -2.711244416546052E+08,
2460679.500000000, A.D. 2025-Jan-04 00:00:00.0000, 1.391813847852176E+09, 4.982959335138116E+09, -2.713336129696169E+08,
2460686.500000000, A.D. 2025-Jan-11 00:00:00.0000, 1.388494884978862E+09, 4.983231231434788E+09, -2.715426882927072E+08,
2460693.500000000, A.D. 2025-Jan-18 00:00:00.0000, 1.385175413920905E+09, 4.983501292129608E+09, -2.717516675639954E+08,
2460700.500000000, A.D. 2025-Jan-25 00:00:00.0000, 1.381855438640648E+09, 4.983769516335864E+09, -2.719605507459242E+08,
2460707.500000000, A.D. 2025-Feb-01 00:00:00.0000, 1.378534963131051E+09, 4.984035903555418E+09, -2.721693378086901E+08,
2460714.500000000, A.D. 2025-Feb-08 00:00:00.0000, 1.375213991256526E+09, 4.984300453676273E+09, -2.723780287198949E+08,
2460721.500000000, A.D. 2025-Feb-15 00:00:00.0000, 1.371892526595145E+09, 4.984563166853687E+09, -2.725866234424844E+08,
$$EOE